ORBCOMM FM103           
1 40091U 14040F   25351.18163909  .00000427  00000+0  12725-3 0  9998
2 40091  47.0045 233.3755 0001553  23.1492 336.9464 14.58541425590816
ORBCOMM FM114           
1 41179U 15081A   25351.12985599  .00000290  00000+0  98147-4 0  9994
2 41179  47.0035 142.5744 0001762  93.5695 266.5393 14.58561187531170
ORBCOMM FM119           
1 41180U 15081B   25351.26307090  .00000518  00000+0  14671-3 0  9997
2 41180  47.0013  51.3032 0001360 214.0830 145.9969 14.58509459532444
ORBCOMM FM105           
1 41181U 15081C   25351.27823268  .00000219  00000+0  10622-3 0  9999
2 41181  47.0018  74.0694 0000895  49.3610 310.7348 14.45408685527232
ORBCOMM FM110           
1 41182U 15081D   25351.11974860  .00000726  00000+0  19080-3 0  9998
2 41182  47.0008 142.1225 0002681 301.5207  58.5417 14.58589036531041
ORBCOMM FM118           
1 41183U 15081E   25351.15423745  .00000577  00000+0  15926-3 0  9993
2 41183  47.0028 142.2579 0003236 266.9618  93.0897 14.58581815531159
ORBCOMM FM112           
1 41184U 15081F   25351.29392656  .00000586  00000+0  16098-3 0  9996
2 41184  47.0000  50.1324 0000631 114.1438 245.9513 14.58585959532398
ORBCOMM FM113           
1 41185U 15081G   25351.20269475  .00000669  00000+0  17871-3 0  9992
2 41185  47.0015  50.9197 0000592 152.6516 207.4401 14.58581961532366
